start=new Date('2022-01-27T00:00:00.000Z').valueOf();
sats=[{"LAUNCH_DATE":"2021-05-09","MEAN_MOTION":"15.06409287","FILE":"3284266","TIME_SYSTEM":"UTC","CENTER_NAME":"EARTH","RA_OF_ASC_NODE":"99.3956","OBJECT_NAME":"STARLINK-2659","MEAN_MOTION_DDOT":"0.0000000000000","MEAN_ELEMENT_THEORY":"SGP4","GP_ID":"194680981","DECAY_DATE":null,"REF_FRAME":"TEME","MEAN_MOTION_DOT":"-0.00000033","COUNTRY_CODE":"US","OBJECT_ID":"2021-040AR","ELEMENT_SET_NO":"999","CLASSIFICATION_TYPE":"U","BSTAR":"0.00001669500000","OBJECT_TYPE":"PAYLOAD","EPOCH":"2022-01-26T13:39:40.631328","PERIOD":"95.592","REV_AT_EPOCH":"3994","ARG_OF_PERICENTER":"73.4316","SITE":"AFETR","INCLINATION":"53.0553","APOAPSIS":"548.207","TLE_LINE2":"2 48467  53.0553  99.3956 0001475  73.4316 286.6835 15.06409287 39949","ECCENTRICITY":"0.00014750","TLE_LINE1":"1 48467U 21040AR  22026.56922027 -.00000033  00000-0  16695-4 0  9999","RCS_SIZE":"LARGE","PERIAPSIS":"546.164","MEAN_ANOMALY":"286.6835","SEMIMAJOR_AXIS":"6925.320","EPHEMERIS_TYPE":"0","NORAD_CAT_ID":"48467"},{"MEAN_MOTION":"15.06402290","FILE":"3284266","TIME_SYSTEM":"UTC","LAUNCH_DATE":"2021-05-09","MEAN_MOTION_DDOT":"0.0000000000000","OBJECT_NAME":"STARLINK-2685","CENTER_NAME":"EARTH","RA_OF_ASC_NODE":"99.4638","GP_ID":"194681231","MEAN_ELEMENT_THEORY":"SGP4","DECAY_DATE":null,"REF_FRAME":"TEME","OBJECT_ID":"2021-040AS","COUNTRY_CODE":"US","MEAN_MOTION_DOT":"-0.00000834","ELEMENT_SET_NO":"999","CLASSIFICATION_TYPE":"U","BSTAR":"-0.00003711100000","OBJECT_TYPE":"PAYLOAD","PERIOD":"95.592","EPOCH":"2022-01-26T13:13:09.717024","REV_AT_EPOCH":"3994","INCLINATION":"53.0556","SITE":"AFETR","APOAPSIS":"548.150","ARG_OF_PERICENTER":"74.4288","TLE_LINE2":"2 48468  53.0556  99.4638 0001362  74.4288 285.6851 15.06402290 39949","ECCENTRICITY":"0.00013620","RCS_SIZE":"LARGE","TLE_LINE1":"1 48468U 21040AS  22026.55080691 -.00000834  00000-0 -37111-4 0  9997","PERIAPSIS":"546.263","MEAN_ANOMALY":"285.6851","EPHEMERIS_TYPE":"0","SEMIMAJOR_AXIS":"6925.342","NORAD_CAT_ID":"48468"},{"MEAN_ANOMALY":"250.3676","EPHEMERIS_TYPE":"0","SEMIMAJOR_AXIS":"6925.361","PERIAPSIS":"546.305","NORAD_CAT_ID":"48469","TLE_LINE2":"2 48469  53.0541  99.4121 0001329 109.7456 250.3676 15.06396007 39945","ECCENTRICITY":"0.00013290","ARG_OF_PERICENTER":"109.7456","SITE":"AFETR","INCLINATION":"53.0541","APOAPSIS":"548.146","TLE_LINE1":"1 48469U 21040AT  22026.56553949  .00000460  00000-0  49748-4 0  9992","RCS_SIZE":"LARGE","CLASSIFICATION_TYPE":"U","ELEMENT_SET_NO":"999","MEAN_MOTION_DOT":"0.00000460","COUNTRY_CODE":"US","OBJECT_ID":"2021-040AT","EPOCH":"2022-01-26T13:34:22.611936","PERIOD":"95.592","REV_AT_EPOCH":"3994","OBJECT_TYPE":"PAYLOAD","BSTAR":"0.00004974800000","CENTER_NAME":"EARTH","RA_OF_ASC_NODE":"99.4121","OBJECT_NAME":"STARLINK-2661","MEAN_MOTION_DDOT":"0.0000000000000","LAUNCH_DATE":"2021-05-09","FILE":"3284266","MEAN_MOTION":"15.06396007","TIME_SYSTEM":"UTC","REF_FRAME":"TEME","DECAY_DATE":null,"MEAN_ELEMENT_THEORY":"SGP4","GP_ID":"194679480"},{"EPOCH":"2022-01-26T13:29:03.017472","PERIOD":"95.591","REV_AT_EPOCH":"3993","OBJECT_TYPE":"PAYLOAD","BSTAR":"0.00010548000000","CLASSIFICATION_TYPE":"U","ELEMENT_SET_NO":"999","MEAN_MOTION_DOT":"0.00001291","COUNTRY_CODE":"US","OBJECT_ID":"2021-040AU","REF_FRAME":"TEME","DECAY_DATE":null,"MEAN_ELEMENT_THEORY":"SGP4","GP_ID":"194680230","CENTER_NAME":"EARTH","RA_OF_ASC_NODE":"99.4206","MEAN_MOTION_DDOT":"0.0000000000000","OBJECT_NAME":"STARLINK-2675","LAUNCH_DATE":"2021-05-09","MEAN_MOTION":"15.06416893","FILE":"3284266","TIME_SYSTEM":"UTC","NORAD_CAT_ID":"48470","MEAN_ANOMALY":"297.3702","EPHEMERIS_TYPE":"0","SEMIMAJOR_AXIS":"6925.297","PERIAPSIS":"546.138","TLE_LINE1":"1 48470U 21040AU  22026.56184048  .00001291  00000-0  10548-3 0  9992","RCS_SIZE":"LARGE","TLE_LINE2":"2 48470  53.0547  99.4206 0001479  62.7438 297.3702 15.06416893 39937","ECCENTRICITY":"0.00014790","ARG_OF_PERICENTER":"62.7438","INCLINATION":"53.0547","SITE":"AFETR","APOAPSIS":"548.186"},{"BSTAR":"-0.00008539600000","OBJECT_TYPE":"PAYLOAD","REV_AT_EPOCH":"4123","EPOCH":"2022-01-26T16:29:30.564384","PERIOD":"95.591","OBJECT_ID":"2021-040AV","MEAN_MOTION_DOT":"-0.00001554","COUNTRY_CODE":"US","CLASSIFICATION_TYPE":"U","ELEMENT_SET_NO":"999","GP_ID":"194687352","MEAN_ELEMENT_THEORY":"SGP4","DECAY_DATE":null,"REF_FRAME":"TEME","MEAN_MOTION":"15.06419779","FILE":"3284459","TIME_SYSTEM":"UTC","LAUNCH_DATE":"2021-05-09","OBJECT_NAME":"STARLINK-2684","MEAN_MOTION_DDOT":"0.0000000000000","RA_OF_ASC_NODE":"98.8677","CENTER_NAME":"EARTH","NORAD_CAT_ID":"48471","PERIAPSIS":"546.218","EPHEMERIS_TYPE":"0","SEMIMAJOR_AXIS":"6925.288","MEAN_ANOMALY":"281.7269","RCS_SIZE":"LARGE","TLE_LINE1":"1 48471U 21040AV  22026.68715931 -.00001554  00000-0 -85396-4 0  9995","APOAPSIS":"548.088","INCLINATION":"53.0555","SITE":"AFETR","ARG_OF_PERICENTER":"78.3871","ECCENTRICITY":"0.00013500","TLE_LINE2":"2 48471  53.0555  98.8677 0001350  78.3871 281.7269 15.06419779 41231"},{"NORAD_CAT_ID":"48472","EPHEMERIS_TYPE":"0","SEMIMAJOR_AXIS":"6925.336","MEAN_ANOMALY":"292.0691","PERIAPSIS":"546.328","TLE_LINE1":"1 48472U 21040AW  22026.46970327  .00001549  00000-0  12283-3 0  9990","RCS_SIZE":"LARGE","ECCENTRICITY":"0.00012610","TLE_LINE2":"2 48472  53.0553  99.8295 0001261  68.0432 292.0691 15.06404149 39918","ARG_OF_PERICENTER":"68.0432","APOAPSIS":"548.074","INCLINATION":"53.0553","SITE":"AFETR","REV_AT_EPOCH":"3991","EPOCH":"2022-01-26T11:16:22.362528","PERIOD":"95.592","BSTAR":"0.00012283000000","OBJECT_TYPE":"PAYLOAD","CLASSIFICATION_TYPE":"U","ELEMENT_SET_NO":"999","MEAN_MOTION_DOT":"0.00001549","COUNTRY_CODE":"US","OBJECT_ID":"2021-040AW","REF_FRAME":"TEME","DECAY_DATE":null,"MEAN_ELEMENT_THEORY":"SGP4","GP_ID":"194680732","RA_OF_ASC_NODE":"99.8295","CENTER_NAME":"EARTH","MEAN_MOTION_DDOT":"0.0000000000000","OBJECT_NAME":"STARLINK-2722","LAUNCH_DATE":"2021-05-09","FILE":"3284266","MEAN_MOTION":"15.06404149","TIME_SYSTEM":"UTC"},{"TLE_LINE1":"1 48473U 21040AX  22026.70560960  .00005451  00000-0  38459-3 0  9995","RCS_SIZE":"LARGE","TLE_LINE2":"2 48473  53.0539  98.7872 0001354  76.7503 283.3637 15.06394801 41234","ECCENTRICITY":"0.00013540","ARG_OF_PERICENTER":"76.7503","SITE":"AFETR","INCLINATION":"53.0539","APOAPSIS":"548.167","NORAD_CAT_ID":"48473","MEAN_ANOMALY":"283.3637","SEMIMAJOR_AXIS":"6925.364","EPHEMERIS_TYPE":"0","PERIAPSIS":"546.292","REF_FRAME":"TEME","DECAY_DATE":null,"MEAN_ELEMENT_THEORY":"SGP4","GP_ID":"194687877","CENTER_NAME":"EARTH","RA_OF_ASC_NODE":"98.7872","MEAN_MOTION_DDOT":"0.0000000000000","OBJECT_NAME":"STARLINK-2658","LAUNCH_DATE":"2021-05-09","FILE":"3284461","TIME_SYSTEM":"UTC","MEAN_MOTION":"15.06394801","EPOCH":"2022-01-26T16:56:04.669440","PERIOD":"95.592","REV_AT_EPOCH":"4123","OBJECT_TYPE":"PAYLOAD","BSTAR":"0.00038459000000","CLASSIFICATION_TYPE":"U","ELEMENT_SET_NO":"999","COUNTRY_CODE":"US","MEAN_MOTION_DOT":"0.00005451","OBJECT_ID":"2021-040AX"},{"GP_ID":"194679731","MEAN_ELEMENT_THEORY":"SGP4","REF_FRAME":"TEME","DECAY_DATE":null,"MEAN_MOTION":"15.06418419","FILE":"3284266","TIME_SYSTEM":"UTC","LAUNCH_DATE":"2021-05-09","OBJECT_NAME":"STARLINK-2697","MEAN_MOTION_DDOT":"0.0000000000000","CENTER_NAME":"EARTH","RA_OF_ASC_NODE":"99.5123","BSTAR":"0.00067515000000","OBJECT_TYPE":"PAYLOAD","PERIOD":"95.591","EPOCH":"2022-01-26T12:57:15.109344","REV_AT_EPOCH":"3992","OBJECT_ID":"2021-040AY","MEAN_MOTION_DOT":"0.00009794","COUNTRY_CODE":"US","ELEMENT_SET_NO":"999","CLASSIFICATION_TYPE":"U","RCS_SIZE":"LARGE","TLE_LINE1":"1 48474U 21040AY  22026.53975821  .00009794  00000-0  67515-3 0  9992","SITE":"AFETR","INCLINATION":"53.0540","APOAPSIS":"548.003","ARG_OF_PERICENTER":"69.2277","TLE_LINE2":"2 48474  53.0540  99.5123 0001221  69.2277 290.8843 15.06418419 39920","ECCENTRICITY":"0.00012210","NORAD_CAT_ID":"48474","PERIAPSIS":"546.312","MEAN_ANOMALY":"290.8843","EPHEMERIS_TYPE":"0","SEMIMAJOR_AXIS":"6925.292"},{"TLE_LINE1":"1 48475U 21040AZ  22026.57660180 -.00000384  00000-0 -68611-5 0  9994","RCS_SIZE":"LARGE","ARG_OF_PERICENTER":"61.9009","INCLINATION":"53.0562","SITE":"AFETR","APOAPSIS":"548.271","TLE_LINE2":"2 48475  53.0562  99.3642 0001492  61.9009 298.2130 15.06391951 41218","ECCENTRICITY":"0.00014920","NORAD_CAT_ID":"48475","PERIAPSIS":"546.205","MEAN_ANOMALY":"298.2130","EPHEMERIS_TYPE":"0","SEMIMAJOR_AXIS":"6925.373","MEAN_ELEMENT_THEORY":"SGP4","GP_ID":"194685274","DECAY_DATE":null,"REF_FRAME":"TEME","LAUNCH_DATE":"2021-05-09","FILE":"3284362","MEAN_MOTION":"15.06391951","TIME_SYSTEM":"UTC","CENTER_NAME":"EARTH","RA_OF_ASC_NODE":"99.3642","OBJECT_NAME":"STARLINK-2619","MEAN_MOTION_DDOT":"0.0000000000000","BSTAR":"-0.00000686110000","OBJECT_TYPE":"PAYLOAD","PERIOD":"95.593","EPOCH":"2022-01-26T13:50:18.395520","REV_AT_EPOCH":"4121","COUNTRY_CODE":"US","MEAN_MOTION_DOT":"-0.00000384","OBJECT_ID":"2021-040AZ","ELEMENT_SET_NO":"999","CLASSIFICATION_TYPE":"U"},{"RCS_SIZE":"LARGE","TLE_LINE1":"1 48476U 21040BA  22026.46601891 -.00000306  00000-0 -16764-5 0  9993","INCLINATION":"53.0521","SITE":"AFETR","APOAPSIS":"548.060","ARG_OF_PERICENTER":"88.5399","TLE_LINE2":"2 48476  53.0521  99.8544 0001229  88.5399 271.5730 15.06401402 39912","ECCENTRICITY":"0.00012290","NORAD_CAT_ID":"48476","PERIAPSIS":"546.358","MEAN_ANOMALY":"271.5730","EPHEMERIS_TYPE":"0","SEMIMAJOR_AXIS":"6925.344","GP_ID":"194681232","MEAN_ELEMENT_THEORY":"SGP4","DECAY_DATE":null,"REF_FRAME":"TEME","FILE":"3284266","MEAN_MOTION":"15.06401402","TIME_SYSTEM":"UTC","LAUNCH_DATE":"2021-05-09","OBJECT_NAME":"STARLINK-2723","MEAN_MOTION_DDOT":"0.0000000000000","CENTER_NAME":"EARTH","RA_OF_ASC_NODE":"99.8544","BSTAR":"-0.00000167640000","OBJECT_TYPE":"PAYLOAD","PERIOD":"95.592","EPOCH":"2022-01-26T11:11:04.033824","REV_AT_EPOCH":"3991","OBJECT_ID":"2021-040BA","COUNTRY_CODE":"US","MEAN_MOTION_DOT":"-0.00000306","ELEMENT_SET_NO":"999","CLASSIFICATION_TYPE":"U"}];
